start=new Date('2023-02-04T00:00:00.000Z').valueOf();
sats=[{"DECAY_DATE":null,"MEAN_ANOMALY":"257.1317","CLASSIFICATION_TYPE":"U","FILE":"3770323","ELEMENT_SET_NO":"999","MEAN_MOTION_DOT":"0.00002115","RCS_SIZE":"LARGE","SEMIMAJOR_AXIS":"6917.882","TLE_LINE2":"2 52140  53.2146 102.3291 0001394 102.9831 257.1317 15.08839622 50335","PERIOD":"95.438","RA_OF_ASC_NODE":"102.3291","REF_FRAME":"TEME","TLE_LINE1":"1 52140U 22029BE  23034.59374617  .00002115  00000-0  15091-3 0  9999","EPHEMERIS_TYPE":"0","APOAPSIS":"540.711","OBJECT_NAME":"STARLINK-3682","MEAN_MOTION_DDOT":"0.0000000000000","MEAN_MOTION":"15.08839622","CENTER_NAME":"EARTH","PERIAPSIS":"538.782","GP_ID":"224312032","SITE":"AFETR","MEAN_ELEMENT_THEORY":"SGP4","EPOCH":"2023-02-03T14:14:59.669088","COUNTRY_CODE":"US","LAUNCH_DATE":"2022-03-19","ARG_OF_PERICENTER":"102.9831","REV_AT_EPOCH":"5033","BSTAR":"0.00015091000000","INCLINATION":"53.2146","OBJECT_ID":"2022-029BE","OBJECT_TYPE":"PAYLOAD","ECCENTRICITY":"0.00013940","TIME_SYSTEM":"UTC","NORAD_CAT_ID":"52140"},{"CLASSIFICATION_TYPE":"U","MEAN_ANOMALY":"265.6265","DECAY_DATE":null,"SEMIMAJOR_AXIS":"6918.196","TLE_LINE2":"2 52261  53.2150 141.7496 0002291  94.4988 265.6265 15.08736772 43771","MEAN_MOTION_DOT":"-0.00011719","RCS_SIZE":"LARGE","FILE":"3770748","ELEMENT_SET_NO":"999","RA_OF_ASC_NODE":"141.7496","PERIOD":"95.444","OBJECT_NAME":"STARLINK-3810","APOAPSIS":"541.646","TLE_LINE1":"1 52261U 22041A   23034.72263723 -.00011719  00000-0 -72140-3 0  9997","EPHEMERIS_TYPE":"0","REF_FRAME":"TEME","CENTER_NAME":"EARTH","PERIAPSIS":"538.476","MEAN_MOTION":"15.08736772","MEAN_MOTION_DDOT":"0.0000000000000","COUNTRY_CODE":"US","SITE":"AFETR","GP_ID":"224348045","MEAN_ELEMENT_THEORY":"SGP4","EPOCH":"2023-02-03T17:20:35.856672","OBJECT_TYPE":"PAYLOAD","OBJECT_ID":"2022-041A","BSTAR":"-0.00072140000000","INCLINATION":"53.2150","REV_AT_EPOCH":"4377","LAUNCH_DATE":"2022-04-21","ARG_OF_PERICENTER":"94.4988","NORAD_CAT_ID":"52261","TIME_SYSTEM":"UTC","ECCENTRICITY":"0.00022910"},{"OBJECT_NAME":"STARLINK-3761","APOAPSIS":"537.754","REF_FRAME":"TEME","TLE_LINE1":"1 52262U 22041B   23035.00001157 -.00479981  00000-0 -31118-1 0  9998","EPHEMERIS_TYPE":"0","RA_OF_ASC_NODE":"140.4456","PERIOD":"95.381","MEAN_MOTION_DOT":"-0.00479981","RCS_SIZE":"LARGE","SEMIMAJOR_AXIS":"6915.131","TLE_LINE2":"2 52262  53.2176 140.4456 0001097  97.7631 328.8754 15.09740039  1306","FILE":"3770748","ELEMENT_SET_NO":"999","MEAN_ANOMALY":"328.8754","CLASSIFICATION_TYPE":"U","DECAY_DATE":null,"TIME_SYSTEM":"UTC","NORAD_CAT_ID":"52262","ECCENTRICITY":"0.00010970","BSTAR":"-0.03111800000000","INCLINATION":"53.2176","OBJECT_TYPE":"PAYLOAD","OBJECT_ID":"2022-041B","ARG_OF_PERICENTER":"97.7631","LAUNCH_DATE":"2022-04-21","REV_AT_EPOCH":"130","COUNTRY_CODE":"US","GP_ID":"224348296","SITE":"AFETR","MEAN_ELEMENT_THEORY":"SGP4","EPOCH":"2023-02-04T00:00:00.999648","CENTER_NAME":"EARTH","PERIAPSIS":"536.237","MEAN_MOTION_DDOT":"0.0000000000000","MEAN_MOTION":"15.09740039"},{"ECCENTRICITY":"0.00012760","TIME_SYSTEM":"UTC","NORAD_CAT_ID":"52263","LAUNCH_DATE":"2022-04-21","ARG_OF_PERICENTER":"89.2058","REV_AT_EPOCH":"4372","BSTAR":"-0.00010596000000","INCLINATION":"53.2162","OBJECT_ID":"2022-041C","OBJECT_TYPE":"PAYLOAD","MEAN_ELEMENT_THEORY":"SGP4","GP_ID":"224312040","SITE":"AFETR","EPOCH":"2023-02-03T09:28:50.758752","COUNTRY_CODE":"US","MEAN_MOTION_DDOT":"0.0000000000000","MEAN_MOTION":"15.08833013","CENTER_NAME":"EARTH","PERIAPSIS":"538.884","REF_FRAME":"TEME","TLE_LINE1":"1 52263U 22041C   23034.39503193 -.00001973  00000-0 -10596-3 0  9998","EPHEMERIS_TYPE":"0","OBJECT_NAME":"STARLINK-3786","APOAPSIS":"540.649","PERIOD":"95.438","RA_OF_ASC_NODE":"143.2186","FILE":"3770323","ELEMENT_SET_NO":"999","MEAN_MOTION_DOT":"-0.00001973","RCS_SIZE":"LARGE","SEMIMAJOR_AXIS":"6917.902","TLE_LINE2":"2 52263  53.2162 143.2186 0001276  89.2058 270.9081 15.08833013 43727","DECAY_DATE":null,"MEAN_ANOMALY":"270.9081","CLASSIFICATION_TYPE":"U"},{"ECCENTRICITY":"0.00011900","TIME_SYSTEM":"UTC","NORAD_CAT_ID":"52264","LAUNCH_DATE":"2022-04-21","ARG_OF_PERICENTER":"108.1269","REV_AT_EPOCH":"4373","INCLINATION":"53.2164","BSTAR":"0.00004976500000","OBJECT_TYPE":"PAYLOAD","OBJECT_ID":"2022-041D","EPOCH":"2023-02-03T10:53:37.684896","MEAN_ELEMENT_THEORY":"SGP4","GP_ID":"224312290","SITE":"AFETR","COUNTRY_CODE":"US","MEAN_MOTION_DDOT":"0.0000000000000","MEAN_MOTION":"15.08832896","PERIAPSIS":"538.944","CENTER_NAME":"EARTH","REF_FRAME":"TEME","EPHEMERIS_TYPE":"0","TLE_LINE1":"1 52264U 22041D   23034.45390839  .00000504  00000-0  49765-4 0  9995","APOAPSIS":"540.590","OBJECT_NAME":"STARLINK-3795","PERIOD":"95.438","RA_OF_ASC_NODE":"142.9544","ELEMENT_SET_NO":"999","FILE":"3770323","RCS_SIZE":"LARGE","MEAN_MOTION_DOT":"0.00000504","TLE_LINE2":"2 52264  53.2164 142.9544 0001190 108.1269 251.9853 15.08832896 43739","SEMIMAJOR_AXIS":"6917.902","DECAY_DATE":null,"MEAN_ANOMALY":"251.9853","CLASSIFICATION_TYPE":"U"},{"PERIOD":"95.438","RA_OF_ASC_NODE":"141.7812","REF_FRAME":"TEME","TLE_LINE1":"1 52265U 22041E   23034.71518472  .00000315  00000-0  37873-4 0  9997","EPHEMERIS_TYPE":"0","APOAPSIS":"540.634","OBJECT_NAME":"STARLINK-3740","DECAY_DATE":null,"MEAN_ANOMALY":"267.8485","CLASSIFICATION_TYPE":"U","FILE":"3770748","ELEMENT_SET_NO":"999","MEAN_MOTION_DOT":"0.00000315","RCS_SIZE":"LARGE","SEMIMAJOR_AXIS":"6917.881","TLE_LINE2":"2 52265  53.2167 141.7812 0001284  92.2655 267.8485 15.08839798 43773","LAUNCH_DATE":"2022-04-21","ARG_OF_PERICENTER":"92.2655","REV_AT_EPOCH":"4377","BSTAR":"0.00003787300000","INCLINATION":"53.2167","OBJECT_ID":"2022-041E","OBJECT_TYPE":"PAYLOAD","ECCENTRICITY":"0.00012840","TIME_SYSTEM":"UTC","NORAD_CAT_ID":"52265","MEAN_MOTION_DDOT":"0.0000000000000","MEAN_MOTION":"15.08839798","CENTER_NAME":"EARTH","PERIAPSIS":"538.858","MEAN_ELEMENT_THEORY":"SGP4","GP_ID":"224347545","SITE":"AFETR","EPOCH":"2023-02-03T17:09:51.959808","COUNTRY_CODE":"US"},{"LAUNCH_DATE":"2022-04-21","ARG_OF_PERICENTER":"89.6669","REV_AT_EPOCH":"4377","BSTAR":"0.00000510900000","INCLINATION":"53.2158","OBJECT_TYPE":"PAYLOAD","OBJECT_ID":"2022-041F","ECCENTRICITY":"0.00011680","TIME_SYSTEM":"UTC","NORAD_CAT_ID":"52266","MEAN_MOTION_DDOT":"0.0000000000000","MEAN_MOTION":"15.08839625","CENTER_NAME":"EARTH","PERIAPSIS":"538.939","GP_ID":"224348796","SITE":"AFETR","MEAN_ELEMENT_THEORY":"SGP4","EPOCH":"2023-02-03T17:04:34.006944","COUNTRY_CODE":"US","PERIOD":"95.438","RA_OF_ASC_NODE":"141.7981","REF_FRAME":"TEME","TLE_LINE1":"1 52266U 22041F   23034.71150471 -.00000207  00000-0  51090-5 0  9998","EPHEMERIS_TYPE":"0","OBJECT_NAME":"STARLINK-3739","APOAPSIS":"540.555","DECAY_DATE":null,"MEAN_ANOMALY":"270.4457","CLASSIFICATION_TYPE":"U","FILE":"3770748","ELEMENT_SET_NO":"999","MEAN_MOTION_DOT":"-0.00000207","RCS_SIZE":"LARGE","SEMIMAJOR_AXIS":"6917.882","TLE_LINE2":"2 52266  53.2158 141.7981 0001168  89.6669 270.4457 15.08839625 43775"},{"COUNTRY_CODE":"US","EPOCH":"2023-02-03T15:23:52.869696","GP_ID":"224349046","SITE":"AFETR","MEAN_ELEMENT_THEORY":"SGP4","PERIAPSIS":"538.654","CENTER_NAME":"EARTH","MEAN_MOTION":"15.08840561","MEAN_MOTION_DDOT":"0.0000000000000","NORAD_CAT_ID":"52267","TIME_SYSTEM":"UTC","ECCENTRICITY":"0.00015750","OBJECT_ID":"2022-041G","OBJECT_TYPE":"PAYLOAD","INCLINATION":"53.2180","BSTAR":"-0.00003445100000","REV_AT_EPOCH":"4376","ARG_OF_PERICENTER":"103.4292","LAUNCH_DATE":"2022-04-21","TLE_LINE2":"2 52267  53.2180 142.1043 0001575 103.4292 256.6876 15.08840561 43765","SEMIMAJOR_AXIS":"6917.879","RCS_SIZE":"LARGE","MEAN_MOTION_DOT":"-0.00000836","ELEMENT_SET_NO":"999","FILE":"3770748","CLASSIFICATION_TYPE":"U","MEAN_ANOMALY":"256.6876","DECAY_DATE":null,"APOAPSIS":"540.833","OBJECT_NAME":"STARLINK-3748","EPHEMERIS_TYPE":"0","TLE_LINE1":"1 52267U 22041G   23034.64158414 -.00000836  00000-0 -34451-4 0  9996","REF_FRAME":"TEME","RA_OF_ASC_NODE":"142.1043","PERIOD":"95.438"},{"MEAN_MOTION_DDOT":"0.0000000000000","MEAN_MOTION":"15.08835929","CENTER_NAME":"EARTH","PERIAPSIS":"538.669","GP_ID":"224347796","SITE":"AFETR","MEAN_ELEMENT_THEORY":"SGP4","EPOCH":"2023-02-03T15:07:59.499264","COUNTRY_CODE":"US","LAUNCH_DATE":"2022-04-21","ARG_OF_PERICENTER":"90.9383","REV_AT_EPOCH":"4376","BSTAR":"-0.00003398900000","INCLINATION":"53.2134","OBJECT_ID":"2022-041H","OBJECT_TYPE":"PAYLOAD","ECCENTRICITY":"0.00015740","TIME_SYSTEM":"UTC","NORAD_CAT_ID":"52268","DECAY_DATE":null,"MEAN_ANOMALY":"269.1790","CLASSIFICATION_TYPE":"U","FILE":"3770748","ELEMENT_SET_NO":"999","MEAN_MOTION_DOT":"-0.00000829","RCS_SIZE":"LARGE","SEMIMAJOR_AXIS":"6917.893","TLE_LINE2":"2 52268  53.2134 142.1602 0001574  90.9383 269.1790 15.08835929 43762","PERIOD":"95.438","RA_OF_ASC_NODE":"142.1602","REF_FRAME":"TEME","TLE_LINE1":"1 52268U 22041H   23034.63054976 -.00000829  00000-0 -33989-4 0  9991","EPHEMERIS_TYPE":"0","OBJECT_NAME":"STARLINK-3746","APOAPSIS":"540.847"},{"OBJECT_ID":"2022-041J","OBJECT_TYPE":"PAYLOAD","BSTAR":"-0.00001735800000","INCLINATION":"53.2133","REV_AT_EPOCH":"4376","LAUNCH_DATE":"2022-04-21","ARG_OF_PERICENTER":"90.5594","NORAD_CAT_ID":"52269","TIME_SYSTEM":"UTC","ECCENTRICITY":"0.00017780","CENTER_NAME":"EARTH","PERIAPSIS":"538.543","MEAN_MOTION":"15.08830949","MEAN_MOTION_DDOT":"0.0000000000000","COUNTRY_CODE":"US","GP_ID":"224348046","SITE":"AFETR","MEAN_ELEMENT_THEORY":"SGP4","EPOCH":"2023-02-03T15:18:35.459424","RA_OF_ASC_NODE":"142.1223","PERIOD":"95.438","APOAPSIS":"541.003","OBJECT_NAME":"STARLINK-3791","TLE_LINE1":"1 52269U 22041J   23034.63791041 -.00000564  00000-0 -17358-4 0  9991","EPHEMERIS_TYPE":"0","REF_FRAME":"TEME","CLASSIFICATION_TYPE":"U","MEAN_ANOMALY":"269.5602","DECAY_DATE":null,"SEMIMAJOR_AXIS":"6917.908","TLE_LINE2":"2 52269  53.2133 142.1223 0001778  90.5594 269.5602 15.08830949 43760","MEAN_MOTION_DOT":"-0.00000564","RCS_SIZE":"LARGE","FILE":"3770748","ELEMENT_SET_NO":"999"}];
